[
    {
        "Altitude(m)": 569314.5837903513,
        "Argument of Periapsis(deg)": 0.0,
        "Eccentricity": 0.0,
        "Inclination(deg)": 53.0,
        "Latitude(deg)": -46.77336972242915,
        "Longitude(deg)": -87.09400277435041,
        "Mean Anomaly(deg)": -114.5455,
        "RAAN(deg)": 140.0,
        "Satellite Name": "Starlink Shell 1 631",
        "Satellite Number": 631,
        "Semi-Major Axis(m)": 6931778.249405717,
        "Time(s)": 0
    },
    {
        "Altitude(m)": 569436.0813066466,
        "Argument of Periapsis(deg)": 0.00034857847951123687,
        "Eccentricity": 0.0,
        "Inclination(deg)": 53.0,
        "Latitude(deg)": -47.07218409156326,
        "Longitude(deg)": -86.33340123285754,
        "Mean Anomaly(deg)": -113.91866879644337,
        "RAAN(deg)": 139.99948122992254,
        "Satellite Name": "Starlink Shell 1 631",
        "Satellite Number": 631,
        "Semi-Major Axis(m)": 6931778.249405717,
        "Time(s)": 10
    },
    {
        "Altitude(m)": 569555.0559863272,
        "Argument of Periapsis(deg)": 0.0006971569590224737,
        "Eccentricity": 0.0,
        "Inclination(deg)": 53.0,
        "Latitude(deg)": -47.36530337879313,
        "Longitude(deg)": -85.56389201788099,
        "Mean Anomaly(deg)": -113.2918375928866,
        "RAAN(deg)": 139.99896245984502,
        "Satellite Name": "Starlink Shell 1 631",
        "Satellite Number": 631,
        "Semi-Major Axis(m)": 6931778.249405717,
        "Time(s)": 20
    },
    {
        "Altitude(m)": 569671.4607293926,
        "Argument of Periapsis(deg)": 0.0010457354385337105,
        "Eccentricity": 0.0,
        "Inclination(deg)": 53.0,
        "Latitude(deg)": -47.65260705398345,
        "Longitude(deg)": -84.78546030122571,
        "Mean Anomaly(deg)": -112.66500638932989,
        "RAAN(deg)": 139.99844368976758,
        "Satellite Name": "Starlink Shell 1 631",
        "Satellite Number": 631,
        "Semi-Major Axis(m)": 6931778.249405717,
        "Time(s)": 30
    },
    {
        "Altitude(m)": 569785.2494291961,
        "Argument of Periapsis(deg)": 0.0013943139180449475,
        "Eccentricity": 0.0,
        "Inclination(deg)": 53.0,
        "Latitude(deg)": -47.93397376960146,
        "Longitude(deg)": -83.99810075365556,
        "Mean Anomaly(deg)": -112.03817518577308,
        "RAAN(deg)": 139.99792491969012,
        "Satellite Name": "Starlink Shell 1 631",
        "Satellite Number": 631,
        "Semi-Major Axis(m)": 6931778.249405717,
        "Time(s)": 40
    },
    {
        "Altitude(m)": 569896.376992585,
        "Argument of Periapsis(deg)": 0.0017428923975561844,
        "Eccentricity": 0.0,
        "Inclination(deg)": 53.0,
        "Latitude(deg)": -48.20928150037655,
        "Longitude(deg)": -83.20181910225759,
        "Mean Anomaly(deg)": -111.41134398221641,
        "RAAN(deg)": 139.99740614961263,
        "Satellite Name": "Starlink Shell 1 631",
        "Satellite Number": 631,
        "Semi-Major Axis(m)": 6931778.249405717,
        "Time(s)": 50
    },
    {
        "Altitude(m)": 570004.7993596364,
        "Argument of Periapsis(deg)": 0.002091470877067421,
        "Eccentricity": 0.0,
        "Inclination(deg)": 53.0,
        "Latitude(deg)": -48.47840769379273,
        "Longitude(deg)": -82.3966321727651,
        "Mean Anomaly(deg)": -110.78451277865976,
        "RAAN(deg)": 139.99688737953514,
        "Satellite Name": "Starlink Shell 1 631",
        "Satellite Number": 631,
        "Semi-Major Axis(m)": 6931778.249405717,
        "Time(s)": 60
    },
    {
        "Altitude(m)": 570110.4735228807,
        "Argument of Periapsis(deg)": 0.0024400493565786582,
        "Eccentricity": 0.0,
        "Inclination(deg)": 53.0,
        "Latitude(deg)": -48.74122943153246,
        "Longitude(deg)": -81.58256792633125,
        "Mean Anomaly(deg)": -110.15768157510301,
        "RAAN(deg)": 139.9963686094577,
        "Satellite Name": "Starlink Shell 1 631",
        "Satellite Number": 631,
        "Semi-Major Axis(m)": 6931778.249405717,
        "Time(s)": 70
    },
    {
        "Altitude(m)": 570213.3575461004,
        "Argument of Periapsis(deg)": 0.002788627836089895,
        "Eccentricity": 0.0,
        "Inclination(deg)": 53.0,
        "Latitude(deg)": -48.99762360192708,
        "Longitude(deg)": -80.75966699995828,
        "Mean Anomaly(deg)": -109.53085037154632,
        "RAAN(deg)": 139.99584983938018,
        "Satellite Name": "Starlink Shell 1 631",
        "Satellite Number": 631,
        "Semi-Major Axis(m)": 6931778.249405717,
        "Time(s)": 80
    },
    {
        "Altitude(m)": 570313.4105826132,
        "Argument of Periapsis(deg)": 0.0031372063156011316,
        "Eccentricity": 0.0,
        "Inclination(deg)": 53.0,
        "Latitude(deg)": -49.24746708339793,
        "Longitude(deg)": -79.92798272088548,
        "Mean Anomaly(deg)": -108.90401916798957,
        "RAAN(deg)": 139.99533106930275,
        "Satellite Name": "Starlink Shell 1 631",
        "Satellite Number": 631,
        "Semi-Major Axis(m)": 6931778.249405717,
        "Time(s)": 90
    },
    {
        "Altitude(m)": 570410.5928930979,
        "Argument of Periapsis(deg)": 0.0034857847951123688,
        "Eccentricity": 0.0,
        "Inclination(deg)": 53.0,
        "Latitude(deg)": -49.49063693879068,
        "Longitude(deg)": -79.087581103613,
        "Mean Anomaly(deg)": -108.27718796443283,
        "RAAN(deg)": 139.99481229922526,
        "Satellite Name": "Starlink Shell 1 631",
        "Satellite Number": 631,
        "Semi-Major Axis(m)": 6931778.249405717,
        "Time(s)": 100
    },
    {
        "Altitude(m)": 570504.8658629186,
        "Argument of Periapsis(deg)": 0.003834363274623606,
        "Eccentricity": 0.0,
        "Inclination(deg)": 53.0,
        "Latitude(deg)": -49.72701062042293,
        "Longitude(deg)": -78.23854233799922,
        "Mean Anomaly(deg)": -107.65035676087616,
        "RAAN(deg)": 139.9942935291478,
        "Satellite Name": "Starlink Shell 1 631",
        "Satellite Number": 631,
        "Semi-Major Axis(m)": 6931778.249405717,
        "Time(s)": 110
    },
    {
        "Altitude(m)": 570596.1920189465,
        "Argument of Periapsis(deg)": 0.004182941754134842,
        "Eccentricity": 0.0,
        "Inclination(deg)": 53.0,
        "Latitude(deg)": -49.95646618556939,
        "Longitude(deg)": -77.38096073802794,
        "Mean Anomaly(deg)": -107.02352555731939,
        "RAAN(deg)": 139.9937747590703,
        "Satellite Name": "Starlink Shell 1 631",
        "Satellite Number": 631,
        "Semi-Major Axis(m)": 6931778.249405717,
        "Time(s)": 120
    },
    {
        "Altitude(m)": 570684.5350458758,
        "Argument of Periapsis(deg)": 0.004531520233646079,
        "Eccentricity": 0.0,
        "Inclination(deg)": 53.0,
        "Latitude(deg)": -50.178882522012174,
        "Longitude(deg)": -76.51494465929795,
        "Mean Anomaly(deg)": -106.39669435376274,
        "RAAN(deg)": 139.99325598899287,
        "Satellite Name": "Starlink Shell 1 631",
        "Satellite Number": 631,
        "Semi-Major Axis(m)": 6931778.249405717,
        "Time(s)": 130
    },
    {
        "Altitude(m)": 570769.8598020334,
        "Argument of Periapsis(deg)": 0.0048800987131573164,
        "Eccentricity": 0.0,
        "Inclination(deg)": 53.0,
        "Latitude(deg)": -50.39413958317965,
        "Longitude(deg)": -75.64061789314266,
        "Mean Anomaly(deg)": -105.76986315020598,
        "RAAN(deg)": 139.99273721891535,
        "Satellite Name": "Starlink Shell 1 631",
        "Satellite Number": 631,
        "Semi-Major Axis(m)": 6931778.249405717,
        "Time(s)": 140
    },
    {
        "Altitude(m)": 570852.1323346808,
        "Argument of Periapsis(deg)": 0.005228677192668553,
        "Eccentricity": 0.0,
        "Inclination(deg)": 53.0,
        "Latitude(deg)": -50.6021186322869,
        "Longitude(deg)": -74.75811950657112,
        "Mean Anomaly(deg)": -105.14303194664927,
        "RAAN(deg)": 139.99221844883792,
        "Satellite Name": "Starlink Shell 1 631",
        "Satellite Number": 631,
        "Semi-Major Axis(m)": 6931778.249405717,
        "Time(s)": 150
    },
    {
        "Altitude(m)": 570931.3198947615,
        "Argument of Periapsis(deg)": 0.00557725567217979,
        "Eccentricity": 0.0,
        "Inclination(deg)": 53.0,
        "Latitude(deg)": -50.80270249478023,
        "Longitude(deg)": -73.8676036358065,
        "Mean Anomaly(deg)": -104.51620074309258,
        "RAAN(deg)": 139.99169967876043,
        "Satellite Name": "Starlink Shell 1 631",
        "Satellite Number": 631,
        "Semi-Major Axis(m)": 6931778.249405717,
        "Time(s)": 160
    },
    {
        "Altitude(m)": 571007.390951154,
        "Argument of Periapsis(deg)": 0.0059258341516910265,
        "Eccentricity": 0.0,
        "Inclination(deg)": 53.0,
        "Latitude(deg)": -50.99577581827227,
        "Longitude(deg)": -72.96924074122084,
        "Mean Anomaly(deg)": -103.88936953953579,
        "RAAN(deg)": 139.99118090868296,
        "Satellite Name": "Starlink Shell 1 631",
        "Satellite Number": 631,
        "Semi-Major Axis(m)": 6931778.249405717,
        "Time(s)": 170
    },
    {
        "Altitude(m)": 571080.3152043561,
        "Argument of Periapsis(deg)": 0.006274412631202263,
        "Eccentricity": 0.0,
        "Inclination(deg)": 53.0,
        "Latitude(deg)": -51.18122533903801,
        "Longitude(deg)": -72.06321729291409,
        "Mean Anomaly(deg)": -103.26253833597914,
        "RAAN(deg)": 139.99066213860547,
        "Satellite Name": "Starlink Shell 1 631",
        "Satellite Number": 631,
        "Semi-Major Axis(m)": 6931778.249405717,
        "Time(s)": 180
    }
]